[
    {
        "Altitude(m)": 610405.331510604,
        "Argument of Periapsis(deg)": 0.0,
        "Eccentricity": 0.0,
        "Inclination(deg)": 60.0,
        "Latitude(deg)": 52.11129496644846,
        "Longitude(deg)": 37.477311234892,
        "Mean Anomaly(deg)": 114.5455,
        "RAAN(deg)": 5.0,
        "Satellite Name": "Test1 29",
        "Satellite Number": 29,
        "Semi-Major Axis(m)": 6980739.136638005,
        "Time(s)": 0
    },
    {
        "Altitude(m)": 610321.9049218658,
        "Argument of Periapsis(deg)": 0.00010418945913296404,
        "Eccentricity": 0.0,
        "Inclination(deg)": 60.0,
        "Latitude(deg)": 51.7460110617449,
        "Longitude(deg)": 38.24620685959086,
        "Mean Anomaly(deg)": 115.16560614546184,
        "RAAN(deg)": 4.999579950860257,
        "Satellite Name": "Test1 29",
        "Satellite Number": 29,
        "Semi-Major Axis(m)": 6980739.136638005,
        "Time(s)": 10
    }
]